NORAD_CAT_ID,OBJECT_NAME,OBJECT_TYPE,EPOCH,MEAN_MOTION,ECCENTRICITY,INCLINATION,RA_OF_ASC_NODE,ARG_OF_PERICENTER,MEAN_ANOMALY,BSTAR,MEAN_MOTION_DOT,MEAN_MOTION_DDOT,TLE_LINE0,TLE_LINE1,TLE_LINE2,SEMIMAJOR_AXIS,PERIOD,APOGEE,PERIGEE,DECAYED
51785.0,STARLINK-3646,PAYLOAD,2023-04-09 15:14:28,15.08845472,0.0001291,53.2157,80.3332,88.1507,271.9633,0.00011832,1.596e-05,0.0,0 STARLINK-3646,1 51785U 22017T   23099.63504972  .00001596  00000-0  11832-3 0  9996,2 51785  53.2157  80.3332 0001291  88.1507 271.9633 15.08845472 61633,6917.864,95.437,540.622,538.836,0.0
51785.0,STARLINK-3646,PAYLOAD,2023-04-10 08:43:43,15.08843571,0.000135,53.2166,77.0637,94.5715,265.5431,9.8523e-05,1.281e-05,0.0,0 STARLINK-3646,1 51785U 22017T   23100.36369245  .00001281  00000-0  98523-4 0  9995,2 51785  53.2166  77.0637 0001350  94.5715 265.5431 15.08843571 61747,6917.869,95.437,540.668,538.801,0.0
51785.0,STARLINK-3646,PAYLOAD,2023-04-10 15:05:15,15.08846168,0.0001442,53.2171,75.8752,102.5866,257.5287,0.00011329,1.516e-05,0.0,0 STARLINK-3646,1 51785U 22017T   23100.62865068  .00001516  00000-0  11329-3 0  9997,2 51785  53.2171  75.8752 0001442 102.5866 257.5287 15.08846168 63473,6917.862,95.437,540.724,538.729,0.0
51785.0,STARLINK-3646,PAYLOAD,2023-04-11 05:23:44,15.08840653,0.0001327,53.2166,73.1985,101.7026,258.4115,8.8116e-05,1.115e-05,0.0,0 STARLINK-3646,1 51785U 22017T   23101.22481583  .00001115  00000-0  88116-4 0  9994,2 51785  53.2166  73.1985 0001327 101.7026 258.4115 15.08840653 63560,6917.878,95.438,540.661,538.825,0.0
51785.0,STARLINK-3646,PAYLOAD,2023-04-11 06:59:07,15.08841987,0.0001349,53.2165,72.9011,101.0763,259.0381,0.00010029,1.309e-05,0.0,0 STARLINK-3646,1 51785U 22017T   23101.29105530  .00001309  00000-0  10029-3 0  9998,2 51785  53.2165  72.9011 0001349 101.0763 259.0381 15.08841987 61887,6917.874,95.437,540.673,538.806,0.0
51785.0,STARLINK-3646,PAYLOAD,2023-04-12 06:49:54,15.08839916,0.0001191,53.2157,68.4386,95.7403,264.3725,4.0184e-05,3.52e-06,0.0,0 STARLINK-3646,1 51785U 22017T   23102.28465828  .00000352  00000-0  40184-4 0  9990,2 51785  53.2157  68.4386 0001191  95.7403 264.3725 15.08839916 62036,6917.881,95.438,540.57,538.922,0.0
51785.0,STARLINK-3646,PAYLOAD,2023-04-13 06:40:41,15.08845732,0.0001154,53.2158,63.9782,98.6729,261.4394,0.00014039,1.948e-05,0.0,0 STARLINK-3646,1 51785U 22017T   23103.27825690  .00001948  00000-0  14039-3 0  9998,2 51785  53.2158  63.9782 0001154  98.6729 261.4394 15.08845732 62188,6917.863,95.437,540.526,538.93,0.0
51785.0,STARLINK-3646,PAYLOAD,2023-04-14 06:31:28,15.0884463,0.0001219,53.2166,59.5163,95.3307,264.7825,0.00013892,1.924e-05,0.0,0 STARLINK-3646,1 51785U 22017T   23104.27185923  .00001924  00000-0  13892-3 0  9997,2 51785  53.2166  59.5163 0001219  95.3307 264.7825 15.08844630 62337,6917.866,95.437,540.575,538.888,0.0
51785.0,STARLINK-3646,PAYLOAD,2023-04-15 00:00:42,15.0885833,0.0001126,53.2164,56.2463,95.7225,264.3896,0.00023362,3.434e-05,0.0,0 STARLINK-3646,1 51785U 22017T   23105.00048976  .00003434  00000-0  23362-3 0  9996,2 51785  53.2164  56.2463 0001126  95.7225 264.3896 15.08858330 64138,6917.824,95.436,540.468,538.91,0.0
51785.0,STARLINK-3646,PAYLOAD,2023-04-15 06:22:14,15.08866925,0.0001153,53.2163,55.0558,103.5938,256.5183,0.00047181,7.234e-05,0.0,0 STARLINK-3646,1 51785U 22017T   23105.26544463  .00007234  00000-0  47181-3 0  9993,2 51785  53.2163  55.0558 0001153 103.5938 256.5183 15.08866925 62485,6917.798,95.436,540.461,538.865,0.0
51785.0,STARLINK-3646,PAYLOAD,2023-04-16 03:02:15,15.08841809,0.0001105,53.2166,51.1895,122.4317,237.6782,4.1817e-05,3.78e-06,0.0,0 STARLINK-3646,1 51785U 22017T   23106.12657232  .00000378  00000-0  41817-4 0  9991,2 51785  53.2166  51.1895 0001105 122.4317 237.6782 15.08841809 64309,6917.875,95.437,540.504,538.975,0.0
51785.0,STARLINK-3646,PAYLOAD,2023-04-16 06:13:02,15.08842647,0.0001152,53.2167,50.595,126.6191,233.4907,0.00013883,1.922e-05,0.0,0 STARLINK-3646,1 51785U 22017T   23106.25905249  .00001922  00000-0  13883-3 0  9996,2 51785  53.2167  50.5950 0001152 126.6191 233.4907 15.08842647 62631,6917.872,95.437,540.534,538.94,0.0
51785.0,STARLINK-3646,PAYLOAD,2023-04-16 20:31:31,15.0882897,0.0001288,53.2165,47.9183,134.6821,225.4276,0.00030121,4.508e-05,0.0,0 STARLINK-3646,1 51785U 22017T   23106.85522071  .00004508  00000-0  30121-3 0  9997,2 51785  53.2165  47.9183 0001288 134.6821 225.4276 15.08828970 64417,6917.914,95.438,540.67,538.888,0.0
51785.0,STARLINK-3646,PAYLOAD,2023-04-17 04:28:26,15.08845623,0.0001327,53.2167,46.4332,136.5168,223.5929,0.0016245,0.00025664,0.0,0 STARLINK-3646,1 51785U 22017T   23107.18641990  .00025664  00000-0  16245-2 0  9992,2 51785  53.2167  46.4332 0001327 136.5168 223.5929 15.08845623 64461,6917.863,95.437,540.646,538.81,0.0
51785.0,STARLINK-3646,PAYLOAD,2023-04-17 06:03:49,15.08852665,0.00013,53.217,46.1364,134.7543,225.3555,0.0019101,0.00030253,0.0,0 STARLINK-3646,1 51785U 22017T   23107.25265951  .00030253  00000-0  19101-2 0  9993,2 51785  53.2170  46.1364 0001300 134.7543 225.3555 15.08852665 62787,6917.842,95.437,540.606,538.807,0.0
51785.0,STARLINK-3646,PAYLOAD,2023-04-17 20:22:18,15.08842745,0.0001733,53.2172,43.4586,130.4137,229.7007,0.00073268,0.00011393,0.0,0 STARLINK-3646,1 51785U 22017T   23107.84882317  .00011393  00000-0  73268-3 0  9998,2 51785  53.2172  43.4586 0001733 130.4137 229.7007 15.08842745 64563,6917.872,95.437,540.936,538.538,0.0
51785.0,STARLINK-3646,PAYLOAD,2023-04-18 05:54:37,15.08844194,0.0001101,53.2175,41.6766,128.4403,231.6688,0.000418,6.372e-05,0.0,0 STARLINK-3646,1 51785U 22017T   23108.24626325  .00006372  00000-0  41800-3 0  9996,2 51785  53.2175  41.6766 0001101 128.4403 231.6688 15.08844194 62934,6917.868,95.437,540.494,538.971,0.0
51785.0,STARLINK-3646,PAYLOAD,2023-04-18 20:13:05,15.08831313,0.0001011,53.2168,39.0001,125.0312,235.0775,5.6338e-05,6.09e-06,0.0,0 STARLINK-3646,1 51785U 22017T   23108.84242964  .00000609  00000-0  56338-4 0  9995,2 51785  53.2168  39.0001 0001011 125.0312 235.0775 15.08831313 64713,6917.907,95.438,540.471,539.073,0.0
51785.0,STARLINK-3646,PAYLOAD,2023-04-19 05:45:24,15.0884364,9.78e-05,53.217,37.2157,117.5556,242.5535,0.00024909,3.679e-05,0.0,0 STARLINK-3646,1 51785U 22017T   23109.23986793  .00003679  00000-0  24909-3 0  9992,2 51785  53.2170  37.2157 0000978 117.5556 242.5535 15.08843640 63087,6917.869,95.437,540.411,539.058,0.0
51785.0,STARLINK-3646,PAYLOAD,2023-04-20 04:00:48,15.08851004,8.49e-05,53.2161,33.0519,110.7971,249.3112,0.00034267,5.172e-05,0.0,0 STARLINK-3646,1 51785U 22017T   23110.16722560  .00005172  00000-0  34267-3 0  9994,2 51785  53.2161  33.0519 0000849 110.7971 249.3112 15.08851004 63221,6917.847,95.437,540.299,539.124,0.0
51785.0,STARLINK-3646,PAYLOAD,2023-04-21 03:51:36,15.08837015,9.58e-05,53.2174,28.593,103.8196,256.2903,9.3807e-05,1.205e-05,0.0,0 STARLINK-3646,1 51785U 22017T   23111.16083395  .00001205  00000-0  93807-4 0  9990,2 51785  53.2174  28.5930 0000958 103.8196 256.2903 15.08837015 65069,6917.89,95.438,540.417,539.092,0.0
51785.0,STARLINK-3646,PAYLOAD,2023-04-21 11:48:31,15.08836896,0.0001003,53.2173,27.1055,97.8196,262.291,0.00018621,2.677e-05,0.0,0 STARLINK-3646,1 51785U 22017T   23111.49203656  .00002677  00000-0  18621-3 0  9994,2 51785  53.2173  27.1055 0001003  97.8196 262.2910 15.08836896 63424,6917.89,95.438,540.449,539.061,0.0
51785.0,STARLINK-3646,PAYLOAD,2023-04-22 00:31:36,15.08849848,9.63e-05,53.217,24.7271,88.2585,271.8518,0.00041986,6.402e-05,0.0,0 STARLINK-3646,1 51785U 22017T   23112.02195347  .00006402  00000-0  41986-3 0  9991,2 51785  53.2170  24.7271 0000963  88.2585 271.8518 15.08849848 65191,6917.85,95.437,540.381,539.049,0.0
51785.0,STARLINK-3646,PAYLOAD,2023-04-22 18:00:51,15.08851983,8.93e-05,53.2164,21.4568,91.8096,268.2998,0.00033057,4.979e-05,0.0,0 STARLINK-3646,1 51785U 22017T   23112.75059043  .00004979  00000-0  33057-3 0  9990,2 51785  53.2164  21.4568 0000893  91.8096 268.2998 15.08851983 65304,6917.844,95.437,540.327,539.091,0.0
51785.0,STARLINK-3646,PAYLOAD,2023-04-23 00:22:23,15.08856993,9.57e-05,53.2161,20.2675,94.3129,265.7972,0.00038911,5.913e-05,0.0,0 STARLINK-3646,1 51785U 22017T   23113.01554716  .00005913  00000-0  38911-3 0  9990,2 51785  53.2161  20.2675 0000957  94.3129 265.7972 15.08856993 63659,6917.828,95.436,540.355,539.031,0.0
51785.0,STARLINK-3646,PAYLOAD,2023-04-23 17:51:37,15.08850111,0.000103,53.2167,16.995,95.3299,264.7811,0.00027924,4.16e-05,0.0,0 STARLINK-3646,1 51785U 22017T   23113.74418705  .00004160  00000-0  27924-3 0  9992,2 51785  53.2167  16.9950 0001030  95.3299 264.7811 15.08850111 65452,6917.849,95.437,540.427,539.002,0.0
51785.0,STARLINK-3646,PAYLOAD,2023-04-24 03:23:55,15.08895312,9.93e-05,53.217,15.2125,92.1202,267.9904,0.002013,0.00031943,0.0,0 STARLINK-3646,1 51785U 22017T   23114.14161978  .00031943  00000-0  20130-2 0  9994,2 51785  53.2170  15.2125 0000993  92.1202 267.9904 15.08895312 63827,6917.711,95.434,540.263,538.889,0.0
51785.0,STARLINK-3646,PAYLOAD,2023-04-24 17:42:23,15.08885306,0.0001797,53.2154,12.5361,110.4533,249.6652,0.0011651,0.00018326,0.0,0 STARLINK-3646,1 51785U 22017T   23114.73777071  .00018326  00000-0  11651-2 0  9994,2 51785  53.2154  12.5361 0001797 110.4533 249.6652 15.08885306 65602,6917.742,95.435,540.85,538.364,0.0
51785.0,STARLINK-3646,PAYLOAD,2023-04-25 00:03:55,15.08884634,0.0001566,53.2165,11.3482,105.4976,254.6189,0.00084384,0.00013184,0.0,0 STARLINK-3646,1 51785U 22017T   23115.00272311  .00013184  00000-0  84384-3 0  9993,2 51785  53.2165  11.3482 0001566 105.4976 254.6189 15.08884634 65642,6917.744,95.435,540.692,538.526,0.0
51785.0,STARLINK-3646,PAYLOAD,2023-04-25 23:54:45,15.08765013,6.49e-05,53.2164,6.8829,356.0166,4.0821,-0.0016062,-0.00025706,0.0,0 STARLINK-3646,1 51785U 22017T   23115.99635443 -.00025706  00000-0 -16062-2 0  9992,2 51785  53.2164   6.8829 0000649 356.0166   4.0821 15.08765013 64100,6918.11,95.442,540.424,539.526,0.0
